STARLINK-2401
1 47818U 21018AH  26061.16668981  .00047161  00000+0  11034-2 0  9999
2 47818  53.0525 288.3172 0001479 103.1174  11.6976 15.41694066  5815
